38040,GLOBALSTAR M084,2011,114.08,700.0,+,52.0,Active,1,LEO,Kazakhstan,Globalstar,Commercial,Communications,Soyuz,1 38040U 11080A   25048.25518837 -.00000098  00000+0  33816-4 0  9995,2 38040  52.0013  53.5881 0000635 117.9463 255.0553 12.62262252607528,12.62262252,6.35e-05,LEO
38041,GLOBALSTAR M080,2011,114.08,700.0,+,52.01,Active,1,LEO,Kazakhstan,Globalstar,Commercial,Communications,Soyuz,1 38041U 11080B   25048.50119628 -.00000096  00000+0  44133-4 0  9991,2 38041  52.0066  54.4077 0000845 104.3793  64.8820 12.62277134607677,12.62277134,8.45e-05,LEO
38042,GLOBALSTAR M082,2011,114.08,700.0,+,52.01,Active,1,LEO,Kazakhstan,Globalstar,Commercial,Communications,Soyuz,1 38042U 11080C   25048.59336812 -.00000101  00000+0  15922-4 0  9998,2 38042  52.0101   9.5574 0000292 345.0259 185.4414 12.62273015608560,12.62273015,2.92e-05,LEO
38043,GLOBALSTAR M092,2011,114.08,700.0,+,52.01,Active,1,LEO,Kazakhstan,Globalstar,Commercial,Communications,Soyuz,1 38043U 11080D   25048.55415536 -.00000092  00000+0  63912-4 0  9997,2 38043  52.0079 100.0478 0000567 129.5141 342.6887 12.62273064606849,12.62273064,5.67e-05,LEO
38044,GLOBALSTAR M090,2011,114.08,700.0,+,51.99,Active,1,LEO,Kazakhstan,Globalstar,Commercial,Communications,Soyuz,1 38044U 11080E   25048.62004331 -.00000093  00000+0  62799-4 0  9996,2 38044  51.9911   3.4400 0000375  44.4000 126.3747 12.62266748608519,12.62266748,3.75e-05,LEO
38045,GLOBALSTAR M086,2011,114.08,700.0,+,51.99,Active,1,LEO,Kazakhstan,Globalstar,Commercial,Communications,Soyuz,1 38045U 11080F   25048.85171355 -.00000085  00000+0  10291-3 0  9993,2 38045  51.9924   3.2760 0001308  60.0278 324.4345 12.62266713608594,12.62266713,0.0001308,LEO
39072,GLOBALSTAR M097,2013,114.08,700.0,+,52.0,Active,1,LEO,Kazakhstan,Globalstar,Commercial,Communications,Soyuz,1 39072U 13005A   25048.63545894 -.00000085  00000+0  10590-3 0  9994,2 39072  52.0040 278.3646 0000939  63.2361 296.8601 12.62270122555712,12.62270122,9.39e-05,LEO
39073,GLOBALSTAR M093,2013,114.08,700.0,+,51.98,Active,1,LEO,Kazakhstan,Globalstar,Commercial,Communications,Soyuz,1 39073U 13005B   25048.13337465 -.00000089  00000+0  80788-4 0  9994,2 39073  51.9799 273.3837 0000941  63.3926 296.7036 12.62261671555608,12.62261671,9.41e-05,LEO
